STARLINK-3320           
1 50839C 22001AN  26112.50465278  .00041583  00000+0  26082-2 0  1126
2 50839  53.2168 342.4266 0001407  91.6666 107.1454 15.08809024    15
STARLINK-3295           
1 50840C 22001AP  26112.46923611  .00042046  00000+0  26373-2 0  1121
2 50840  53.2170 342.5855 0001432  93.5564 292.7929 15.08807983    11
STARLINK-3300           
1 50841C 22001AQ  26112.48590278  .00044277  00000+0  27773-2 0  1126
2 50841  53.2168 342.5120 0001286  95.7904 321.1250 15.08806486    14
STARLINK-3302           
1 50842C 22001AR  26112.50326389  .00044134  00000+0  27676-2 0  1124
2 50842  53.2170 342.4337 0001360  94.5773 136.6909 15.08815041    18
STARLINK-3325           
1 50843C 22001AS  26112.46298611  .00506180  00000+0  20586-2 0  1123
2 50843  53.2161 317.7019 0001627 142.1877 174.8359 15.85230827    13
STARLINK-3326           
1 50844C 22001AT  26112.48590278  .00103480  00000+0  64935-2 0  1122
2 50844  53.2169 342.5139 0001286  91.8117 105.0338 15.08760354    10
STARLINK-3230           
1 50845C 22001AU  26112.49145833  .00048215  00000+0  30234-2 0  1126
2 50845  53.2159 342.4864 0001543  95.0902 251.9624 15.08814446    19
STARLINK-3308           
1 50846C 22001AV  26112.45881944  .00038072  00000+0  23876-2 0  1127
2 50846  53.2172 342.7498 0001501  97.4242 272.2222 15.08816309    18
STARLINK-3315           
1 50848C 22001AX  26112.45118056  .00033875  00000+0  21248-2 0  1123
2 50848  53.2166 342.6689 0001372  94.3130 313.8957 15.08812260    11
STARLINK-3311           
1 50849C 22001AY  26112.45048611  .00077661  00000+0  48689-2 0  1122
2 50849  53.2171 342.6715 0001564  95.4482 248.9954 15.08807232    11
STARLINK-3312           
1 50850C 22001AZ  26112.49423611  .00025724  00000+0  16126-2 0  1129
2 50850  53.2158 302.4740 0002021 124.8855  77.1992 15.08836657    17
STARLINK-3314           
1 50851C 22001BA  26112.51506944  .00045146  00000+0  28315-2 0  1127
2 50851  53.2160 342.3050 0001395  92.8594   2.6067 15.08808977    15
STARLINK-3366           
1 51104C 22005A   26112.45465278  .00009212  00000+0  57766-3 0  1127
2 51104  53.2149  92.6529 0001296  73.2158 268.8416 15.08833633    10
STARLINK-3350           
1 51105C 22005B   26112.52687500 -.00017384  00000+0 -10902-2 0  1121
2 51105  53.2161  92.3283 0001388  83.5945  70.9849 15.08846199    12
STARLINK-3176           
1 51106C 22005C   26112.49006944 -.00009215  00000+0 -57786-3 0  1121
2 51106  53.2148  92.4929 0001545  71.9116   2.6314 15.08842125    16
STARLINK-3362           
1 51108C 22005E   26112.49562500 -.00006891  00000+0 -43209-3 0  1120
2 51108  53.2166  92.4661 0001668  69.6149 295.1293 15.08841524    14
STARLINK-3358           
1 51109C 22005F   26112.48381944  .00002876  00000+0  18034-3 0  1126
2 51109  53.2155  92.4730 0001388  77.1986 123.4035 15.08836464    16
STARLINK-3344           
1 51110C 22005G   26112.46368056  .00010704  00000+0  67127-3 0  1121
2 51110  53.2158  92.5893 0001424  74.7019 176.4535 15.08829143    12
STARLINK-3173           
1 51111C 22005H   26112.48034722  .00008310  00000+0  52113-3 0  1123
2 51111  53.2147  92.5371 0001412  75.2483  26.4700 15.08831274    16
STARLINK-3374           
1 51112C 22005J   26112.52201389 -.00017187  00000+0 -10777-2 0  1127
2 51112  53.2157  92.3197 0001467  79.2811 143.5719 15.08847008    14
STARLINK-3372           
1 51113C 22005K   26112.47062500 -.00003787  00000+0 -23750-3 0  1129
2 51113  53.2145  92.5808 0001372  76.1784 272.6872 15.08839834    15
STARLINK-3375           
1 51114C 22005L   26112.46368056 -.00002108  00000+0 -13218-3 0  1128
2 51114  53.2167  92.6092 0001310  72.4508 138.6780 15.08838676    13
STARLINK-3397           
1 51115C 22005M   26112.48312500 -.00000258  00000+0 -16166-4 0  1124
2 51115  53.2144  92.5245 0001447  73.5650  23.2272 15.08839267    11
STARLINK-3243           
1 51116C 22005N   26112.44423611  .00025403  00000+0  15931-2 0  1121
2 51116  53.2151  92.6717 0001450  76.3282 103.9553 15.08822904    19
STARLINK-3391           
1 51117C 22005P   26112.41229167  .00037627  00000+0  23616-2 0  1129
2 51117  53.2162  92.7326 0001339  70.3228 141.5964 15.08787444    12
STARLINK-3394           
1 51118C 22005Q   26112.51854167 -.00019876  00000+0 -12464-2 0  1122
2 51118  53.2147  92.3661 0001456  73.9792 195.3050 15.08846462    18
STARLINK-3398           
1 51120C 22005S   26112.50881944 -.00019618  00000+0 -12303-2 0  1123
2 51120  53.2159  92.4197 0001383  79.9446 291.2914 15.08845737    19
STARLINK-3399           
1 51121C 22005T   26112.52687500 -.00026200  00000+0 -16430-2 0  1128
2 51121  53.2149  92.3386 0001388  77.5072 311.8550 15.08849141    10
STARLINK-3392           
1 51123C 22005V   26112.48381944 -.00001286  00000+0 -80657-4 0  1129
2 51123  53.2159  92.5216 0001342  81.5745 179.0587 15.08819338    18
STARLINK-3389           
1 51124C 22005W   26112.49979167  .00007770  00000+0  48721-3 0  1128
2 51124  53.2149 102.4504 0001401  73.6250  38.7535 15.08834231    11
STARLINK-3387           
1 51125C 22005X   26112.49284722  .00012812  00000+0  80343-3 0  1124
2 51125  53.2156 102.4914 0001348  78.1382  51.2981 15.08829804    16
STARLINK-3386           
1 51126C 22005Y   26112.48798611  .00017136  00000+0  10746-2 0  1124
2 51126  53.2151 102.5140 0001248  75.1259 347.8887 15.08826586    16
STARLINK-3370           
1 51127C 22005Z   26112.44145833  .00040862  00000+0  25639-2 0  1122
2 51127  53.2155 102.7227 0001575  74.5459 115.6631 15.08795502    18
STARLINK-3400           
1 51128C 22005AA  26112.49631944  .00010926  00000+0  68507-3 0  1121
2 51128  53.2159 102.4665 0001446  78.0780 155.3341 15.08836756    15
STARLINK-3396           
1 51129C 22005AB  26112.49423611  .00014489  00000+0  90901-3 0  1123
2 51129  53.2146 102.4758 0001307  88.6160 348.4729 15.08813723    14
STARLINK-3395           
1 51130C 22005AC  26112.48590278  .00020640  00000+0  12944-2 0  1124
2 51130  53.2158 102.5128 0001285  70.9119  45.9904 15.08825224    17
STARLINK-3388           
1 51131C 22005AD  26112.51784722  .00043382  00000+0  27184-2 0  1128
2 51131  53.2157 102.3690 0001488  78.3771 252.1312 15.08843588    18
STARLINK-3393           
1 51132C 22005AE  26112.48590278  .00016955  00000+0  10631-2 0  1121
2 51132  53.2159 102.5127 0001190  65.6649  71.2148 15.08832970    11
STARLINK-3356           
1 51133C 22005AF  26112.52479167 -.00016671  00000+0 -10455-2 0  1121
2 51133  53.2158 102.3369 0001396  73.3444 334.9083 15.08845407    10
STARLINK-3363           
1 51135C 22005AH  26112.47270833  .00012193  00000+0  76460-3 0  1128
2 51135  53.2153 102.4652 0001534  74.2014 125.8646 15.08830987    19
STARLINK-3253           
1 51136C 22005AJ  26112.46437500  .00030818  00000+0  19325-2 0  1124
2 51136  53.2145 102.4067 0001260  69.1824 130.8515 15.08824039    11
STARLINK-3180           
1 51137C 22005AK  26112.46784722  .00026635  00000+0  16704-2 0  1126
2 51137  53.2152 102.5910 0001349  69.4050 109.3863 15.08820945    19
STARLINK-3177           
1 51138C 22005AL  26112.48104167  .00019334  00000+0  12125-2 0  1129
2 51138  53.2158 102.5315 0001572  67.7522 142.7427 15.08825687    13
STARLINK-3172           
1 51139C 22005AM  26112.49284722  .00012316  00000+0  77238-3 0  1127
2 51139  53.2142 102.4910 0001303  79.6813 269.7530 15.08830308    15
STARLINK-3175           
1 51140C 22005AN  26112.46923611  .00025747  00000+0  16147-2 0  1126
2 51140  53.2155 102.5950 0001530  70.0852  91.0482 15.08822028    18
STARLINK-3179           
1 51141C 22005AP  26112.48937500  .00014257  00000+0  89403-3 0  1121
2 51141  53.2141 102.4976 0001349  67.3953 308.3815 15.08830227    14
STARLINK-3369           
1 51142C 22005AQ  26112.50812500  .00001486  00000+0  64548-4 0  1121
2 51142  53.2112  81.5675 0005992  29.5002 301.3239 15.21770262    19
STARLINK-3184           
1 51143C 22005AR  26112.48729167  .00020544  00000+0  12883-2 0  1124
2 51143  53.2152 112.5061 0001366  73.4370  16.0161 15.08827496    16
STARLINK-3185           
1 51144C 22005AS  26112.46437500  .00031003  00000+0  19440-2 0  1128
2 51144  53.2143 102.6199 0001307  78.2084 136.4810 15.08825186    11
STARLINK-3354           
1 51146C 22005AU  26112.46993056  .00026788  00000+0  16798-2 0  1120
2 51146  53.2149 102.5921 0001288  66.8723 138.0224 15.08824055    13
STARLINK-3352           
1 51147C 22005AV  26112.47756944  .00042514  00000+0  15294-2 0  1120
2 51147  53.1895  94.6570 0004494  58.3858  77.6298 15.28042580    15
STARLINK-3359           
1 51148C 22005AW  26112.46298611  .00058980  00000+0  34983-2 0  1122
2 51148  53.2147 112.4335 0002475  22.9212  70.1931 15.10829053    14
STARLINK-3360           
1 51149C 22005AX  26112.49354167  .00025000  00000+0  15678-2 0  1122
2 51149  53.2146 112.2954 0001348  71.2815 207.0727 15.08823581    14
STARLINK-3357           
1 51150C 22005AY  26112.45118056 -.00066380  00000+0 -41617-2 0  1125
2 51150  53.2161 102.2807 0001320  84.4275 304.0423 15.08879193    16
STARLINK-3364           
1 51152C 22005BA  26112.49562500  .00028650  00000+0  17970-2 0  1129
2 51152  53.2155 112.0844 0001431  79.2888 335.6321 15.08815083    11
STARLINK-3181           
1 51461C 22010F   26112.48243056 -.00019925  00000+0 -12495-2 0  1123
2 51461  53.2157  82.5278 0001360  79.8745 248.1446 15.08846628    12
STARLINK-3166           
1 51462C 22010G   26112.46298611 -.00003836  00000+0 -24061-3 0  1126
2 51462  53.2160  82.6243 0001369  99.5332 137.5176 15.08832454    13
STARLINK-3419           
1 51463C 22010H   26112.45812500  .00000902  00000+0  56530-4 0  1121
2 51463  53.2158  82.6356 0001463  93.0688 262.7941 15.08850212    17
STARLINK-3189           
1 51464C 22010J   26112.45951389 -.00007156  00000+0 -44876-3 0  1120
2 51464  53.2164  82.6317 0001585  76.1362 187.3424 15.08839619    14
